[{"OBJECT_NAME":"STARLINK-34980","OBJECT_ID":"2025-179Z","EPOCH":"2026-03-09T15:54:22.888224","MEAN_MOTION":15.05645298,"ECCENTRICITY":0.0002258,"INCLINATION":97.6034,"RA_OF_ASC_NODE":112.9269,"ARG_OF_PERICENTER":106.0664,"MEAN_ANOMALY":254.0812,"EPHEMERIS_TYPE":0,"CLASSIFICATION_TYPE":"U","NORAD_CAT_ID":65258,"ELEMENT_SET_NO":999,"REV_AT_EPOCH":3181,"BSTAR":-0.0002028248,"MEAN_MOTION_DOT":-2.986e-5,"MEAN_MOTION_DDOT":0},{"OBJECT_NAME":"CZ-2D DEB","OBJECT_ID":"2018-048F","EPOCH":"2026-03-09T12:09:53.706240","MEAN_MOTION":15.03119858,"ECCENTRICITY":0.00118256,"INCLINATION":98.3009,"RA_OF_ASC_NODE":268.7455,"ARG_OF_PERICENTER":183.5969,"MEAN_ANOMALY":176.5171,"EPHEMERIS_TYPE":0,"CLASSIFICATION_TYPE":"U","NORAD_CAT_ID":44619,"ELEMENT_SET_NO":999,"REV_AT_EPOCH":41667,"BSTAR":0.00065531565,"MEAN_MOTION_DOT":8.795e-5,"MEAN_MOTION_DDOT":0}]
